[{"OBJECT_NAME":"STARLINK-4504","OBJECT_ID":"2022-101AE","EPOCH":"2026-03-09T04:57:11.756448","MEAN_MOTION":15.08841062,"ECCENTRICITY":0.00013082,"INCLINATION":53.217,"RA_OF_ASC_NODE":66.2909,"ARG_OF_PERICENTER":84.6203,"MEAN_ANOMALY":275.4939,"EPHEMERIS_TYPE":0,"CLASSIFICATION_TYPE":"U","NORAD_CAT_ID":53555,"ELEMENT_SET_NO":999,"REV_AT_EPOCH":19689,"BSTAR":-4.2484e-8,"MEAN_MOTION_DOT":-2.89e-6,"MEAN_MOTION_DDOT":0},{"OBJECT_NAME":"OBJECT T","OBJECT_ID":"2018-099T","EPOCH":"2026-03-09T14:32:29.418720","MEAN_MOTION":15.09436097,"ECCENTRICITY":0.0004517,"INCLINATION":97.4347,"RA_OF_ASC_NODE":115.9313,"ARG_OF_PERICENTER":320.9739,"MEAN_ANOMALY":39.1164,"EPHEMERIS_TYPE":0,"CLASSIFICATION_TYPE":"U","NORAD_CAT_ID":43775,"ELEMENT_SET_NO":999,"REV_AT_EPOCH":39729,"BSTAR":0.00032877,"MEAN_MOTION_DOT":5.2e-5,"MEAN_MOTION_DDOT":0}]
